{"type": "FeatureCollection", "features": [ {"type": "Feature", "properties": {"norad_id": 66996, "name": "2025-292D", "group": "last-30-days", "lat": -55.94287268702717, "lon": 74.44380820289997, "alt_km": 552.9187384874203, "timestamp": "2025-12-16T10:53:44.208248+00:00", "meta": {"OBJECT_NAME": "2025-292D", "OBJECT_ID": "2025-292D", "EPOCH": "2025-12-15T22:22:42.077280", "MEAN_MOTION": 15.04618589, "ECCENTRICITY": 0.00130215, "INCLINATION": 97.653, "RA_OF_ASC_NODE": 62.4534, "ARG_OF_PERICENTER": 264.2873, "MEAN_ANOMALY": 95.6869, "EPHEMERIS_TYPE": 0, "CLASSIFICATION_TYPE": "U", "NORAD_CAT_ID": 66996, "ELEMENT_SET_NO": 999, "REV_AT_EPOCH": 87, "BSTAR": 0.00021923207, "MEAN_MOTION_DOT": 3.022e-05, "MEAN_MOTION_DDOT": 0}, "tle": {"line1": "1 66996U 25292D   25349.93243145  .00003022  00000+0  21923-3 0  9996", "line2": "2 66996  97.6530  62.4534 0013021 264.2873  95.6869 15.04618589   876"}}, "geometry": {"type": "Point", "coordinates": [74.44380820289997, -55.94287268702717]}}, {"type": "Feature", "properties": {"norad_id": 66997, "name": "2025-292E", "group": "last-30-days", "lat": -54.20381928589133, "lon": 73.72152382984362, "alt_km": 552.5389646649373, "timestamp": "2025-12-16T10:53:44.208258+00:00", "meta": {"OBJECT_NAME": "2025-292E", "OBJECT_ID": "2025-292E", "EPOCH": "2025-12-15T22:22:15.955968", "MEAN_MOTION": 15.04700747, "ECCENTRICITY": 0.00133712, "INCLINATION": 97.6551, "RA_OF_ASC_NODE": 62.455, "ARG_OF_PERICENTER": 265.1747, "MEAN_ANOMALY": 94.7952, "EPHEMERIS_TYPE": 0, "CLASSIFICATION_TYPE": "U", "NORAD_CAT_ID": 66997, "ELEMENT_SET_NO": 999, "REV_AT_EPOCH": 86, "BSTAR": 0.0002313467, "MEAN_MOTION_DOT": 3.2e-05, "MEAN_MOTION_DDOT": 0}, "tle": {"line1": "1 66997U 25292E   25349.93212912  .00003200  00000+0  23135-3 0  9990", "line2": "2 66997  97.6551  62.4550 0013371 265.1747  94.7952 15.04700747   866"}}, "geometry": {"type": "Point", "coordinates": [73.72152382984362, -54.20381928589133]}}, {"type": "Feature", "properties": {"norad_id": 66998, "name": "2025-292F", "group": "last-30-days", "lat": -50.82480413141851, "lon": 72.47809750692328, "alt_km": 551.702182446762, "timestamp": "2025-12-16T10:53:44.208270+00:00", "meta": {"OBJECT_NAME": "2025-292F", "OBJECT_ID": "2025-292F", "EPOCH": "2025-12-15T22:21:25.432704", "MEAN_MOTION": 15.04861044, "ECCENTRICITY": 0.00144748, "INCLINATION": 97.6571, "RA_OF_ASC_NODE": 62.457, "ARG_OF_PERICENTER": 265.9841, "MEAN_ANOMALY": 93.9731, "EPHEMERIS_TYPE": 0, "CLASSIFICATION_TYPE": "U", "NORAD_CAT_ID": 66998, "ELEMENT_SET_NO": 999, "REV_AT_EPOCH": 87, "BSTAR": 0.0003033774, "MEAN_MOTION_DOT": 4.236e-05, "MEAN_MOTION_DDOT": 0}, "tle": {"line1": "1 66998U 25292F   25349.93154436  .00004236  00000+0  30338-3 0  9990", "line2": "2 66998  97.6571  62.4570 0014474 265.9841  93.9731 15.04861044   874"}}, "geometry": {"type": "Point", "coordinates": [72.47809750692328, -50.82480413141851]}}, {"type": "Feature", "properties": {"norad_id": 66999, "name": "2025-292G", "group": "last-30-days", "lat": -49.43761783148299, "lon": 72.02003387899971, "alt_km": 551.6240332827065, "timestamp": "2025-12-16T10:53:44.208280+00:00", "meta": {"OBJECT_NAME": "2025-292G", "OBJECT_ID": "2025-292G", "EPOCH": "2025-12-15T22:21:04.665600", "MEAN_MOTION": 15.0492453, "ECCENTRICITY": 0.00139839, "INCLINATION": 97.658, "RA_OF_ASC_NODE": 62.4578, "ARG_OF_PERICENTER": 268.1438, "MEAN_ANOMALY": 91.8187, "EPHEMERIS_TYPE": 0, "CLASSIFICATION_TYPE": "U", "NORAD_CAT_ID": 66999, "ELEMENT_SET_NO": 999, "REV_AT_EPOCH": 87, "BSTAR": 0.00029836975, "MEAN_MOTION_DOT": 4.172e-05, "MEAN_MOTION_DDOT": 0}, "tle": {"line1": "1 66999U 25292G   25349.93130400  .00004172  00000+0  29837-3 0  9997", "line2": "2 66999  97.6580  62.4578 0013983 268.1438  91.8187 15.04924530   876"}}, "geometry": {"type": "Point", "coordinates": [72.02003387899971, -49.43761783148299]}}, {"type": "Feature", "properties": {"norad_id": 67000, "name": "2025-292H", "group": "last-30-days", "lat": -49.434971760300435, "lon": 72.02183570602662, "alt_km": 551.6793616502537, "timestamp": "2025-12-16T10:53:44.208292+00:00", "meta": {"OBJECT_NAME": "2025-292H", "OBJECT_ID": "2025-292H", "EPOCH": "2025-12-15T22:21:04.642272", "MEAN_MOTION": 15.04925329, "ECCENTRICITY": 0.0013999, "INCLINATION": 97.6593, "RA_OF_ASC_NODE": 62.4588, "ARG_OF_PERICENTER": 267.6261, "MEAN_ANOMALY": 92.3362, "EPHEMERIS_TYPE": 0, "CLASSIFICATION_TYPE": "U", "NORAD_CAT_ID": 67000, "ELEMENT_SET_NO": 999, "REV_AT_EPOCH": 74, "BSTAR": 0.00019079719, "MEAN_MOTION_DOT": 2.644e-05, "MEAN_MOTION_DDOT": 0}, "tle": {"line1": "1 67000U 25292H   25349.93130373  .00002644  00000+0  19080-3 0  9991", "line2": "2 67000  97.6593  62.4588 0013999 267.6261  92.3362 15.04925329   744"}}, "geometry": {"type": "Point", "coordinates": [72.02183570602662, -49.434971760300435]}}, {"type": "Feature", "properties": {"norad_id": 67001, "name": "2025-292J", "group": "last-30-days", "lat": -62.22890328277621, "lon": 77.7718128535278, "alt_km": 553.3858454558085, "timestamp": "2025-12-16T10:53:44.208304+00:00", "meta": {"OBJECT_NAME": "2025-292J", "OBJECT_ID": "2025-292J", "EPOCH": "2025-12-15T22:24:17.919936", "MEAN_MOTION": 15.04339228, "ECCENTRICITY": 0.00142002, "INCLINATION": 97.657, "RA_OF_ASC_NODE": 62.4544, "ARG_OF_PERICENTER": 256.7169, "MEAN_ANOMALY": 103.2473, "EPHEMERIS_TYPE": 0, "CLASSIFICATION_TYPE": "U", "NORAD_CAT_ID": 67001, "ELEMENT_SET_NO": 999, "REV_AT_EPOCH": 87, "BSTAR": 0.00031042517, "MEAN_MOTION_DOT": 4.275e-05, "MEAN_MOTION_DDOT": 0}, "tle": {"line1": "1 67001U 25292J   25349.93354074  .00004275  00000+0  31043-3 0  9993", "line2": "2 67001  97.6570  62.4544 0014200 256.7169 103.2473 15.04339228   870"}}, "geometry": {"type": "Point", "coordinates": [77.7718128535278, -62.22890328277621]}}, {"type": "Feature", "properties": {"norad_id": 67002, "name": "ZK-1A R/B", "group": "last-30-days", "lat": -7.829316112965224, "lon": 64.60196771202688, "alt_km": 257.5549308322852, "timestamp": "2025-12-16T10:53:44.208316+00:00", "meta": {"OBJECT_NAME": "ZK-1A R/B", "OBJECT_ID": "2025-292K", "EPOCH": "2025-12-15T22:34:43.179456", "MEAN_MOTION": 15.55630139, "ECCENTRICITY": 0.02164276, "INCLINATION": 97.7243, "RA_OF_ASC_NODE": 62.9775, "ARG_OF_PERICENTER": 354.2409, "MEAN_ANOMALY": 5.6358, "EPHEMERIS_TYPE": 0, "CLASSIFICATION_TYPE": "U", "NORAD_CAT_ID": 67002, "ELEMENT_SET_NO": 999, "REV_AT_EPOCH": 89, "BSTAR": 0.00072690324, "MEAN_MOTION_DOT": 0.00149163, "MEAN_MOTION_DDOT": 7.964828e-06}, "tle": {"line1": "1 67002U 25292K   25349.94077754  .00149163  79648-5  72690-3 0  9991", "line2": "2 67002  97.7243  62.9775 0216427 354.2409   5.6358 15.55630139   896"}}, "geometry": {"type": "Point", "coordinates": [64.60196771202688, -7.829316112965224]}}, {"type": "Feature", "properties": {"norad_id": 67059, "name": "HULIANWANG DIGUI 16A", "group": "last-30-days", "lat": -4.087177850869262, "lon": 179.9946813015509, "alt_km": 804.428313522305, "timestamp": "2025-12-16T10:53:44.208327+00:00", "meta": {"OBJECT_NAME": "HULIANWANG DIGUI 16A", "OBJECT_ID": "2025-295A", "EPOCH": "2025-12-12T05:06:27.347328", "MEAN_MOTION": 14.25879966, "ECCENTRICITY": 0.00136284, "INCLINATION": 50.0035, "RA_OF_ASC_NODE": 14.4753, "ARG_OF_PERICENTER": 247.7813, "MEAN_ANOMALY": 112.1656, "EPHEMERIS_TYPE": 0, "CLASSIFICATION_TYPE": "U", "NORAD_CAT_ID": 67059, "ELEMENT_SET_NO": 999, "REV_AT_EPOCH": 4, "BSTAR": 3.434713e-06, "MEAN_MOTION_DOT": -1.52e-06, "MEAN_MOTION_DDOT": 0}, "tle": {"line1": "1 67059U 25295A   25346.21281652 -.00000152  00000+0  34347-5 0  9991", "line2": "2 67059  50.0035  14.4753 0013628 247.7813 112.1656 14.25879966    41"}}, "geometry": {"type": "Point", "coordinates": [179.9946813015509, -4.087177850869262]}}, {"type": "Feature", "properties": {"norad_id": 67060, "name": "HULIANWANG DIGUI 16B", "group": "last-30-days", "lat": -5.84532040903324, "lon": -178.51643945163872, "alt_km": 803.319339503304, "timestamp": "2025-12-16T10:53:44.208339+00:00", "meta": {"OBJECT_NAME": "HULIANWANG DIGUI 16B", "OBJECT_ID": "2025-295B", "EPOCH": "2025-12-12T05:06:25.468992", "MEAN_MOTION": 14.26022254, "ECCENTRICITY": 0.0013423, "INCLINATION": 50.0012, "RA_OF_ASC_NODE": 14.4776, "ARG_OF_PERICENTER": 244.6732, "MEAN_ANOMALY": 115.2792, "EPHEMERIS_TYPE": 0, "CLASSIFICATION_TYPE": "U", "NORAD_CAT_ID": 67060, "ELEMENT_SET_NO": 999, "REV_AT_EPOCH": 4, "BSTAR": 4.398892e-06, "MEAN_MOTION_DOT": -1.5e-06, "MEAN_MOTION_DDOT": 0}, "tle": {"line1": "1 67060U 25295B   25346.21279478 -.00000150  00000+0  43989-5 0  9996", "line2": "2 67060  50.0012  14.4776 0013423 244.6732 115.2792 14.26022254    48"}}, "geometry": {"type": "Point", "coordinates": [-178.51643945163872, -5.84532040903324]}}, {"type": "Feature", "properties": {"norad_id": 67062, "name": "HULIANWANG DIGUI 16D", "group": "last-30-days", "lat": -4.6635545902708335, "lon": -179.52060015677264, "alt_km": 804.9673250431833, "timestamp": "2025-12-16T10:53:44.208349+00:00", "meta": {"OBJECT_NAME": "HULIANWANG DIGUI 16D", "OBJECT_ID": "2025-295D", "EPOCH": "2025-12-12T05:06:24.477120", "MEAN_MOTION": 14.25916921, "ECCENTRICITY": 0.00124974, "INCLINATION": 50.0052, "RA_OF_ASC_NODE": 14.4731, "ARG_OF_PERICENTER": 251.2247, "MEAN_ANOMALY": 108.7311, "EPHEMERIS_TYPE": 0, "CLASSIFICATION_TYPE": "U", "NORAD_CAT_ID": 67062, "ELEMENT_SET_NO": 999, "REV_AT_EPOCH": 4, "BSTAR": 3.753899e-06, "MEAN_MOTION_DOT": -1.51e-06, "MEAN_MOTION_DDOT": 0}, "tle": {"line1": "1 67062U 25295D   25346.21278330 -.00000151  00000+0  37539-5 0  9999", "line2": "2 67062  50.0052  14.4731 0012497 251.2247 108.7311 14.25916921    46"}}, "geometry": {"type": "Point", "coordinates": [-179.52060015677264, -4.6635545902708335]}}]}